[{"OBJECT_NAME":"STARLINK-31465","OBJECT_ID":"2024-036Q","EPOCH":"2026-03-09T06:21:10.401408","MEAN_MOTION":15.30190416,"ECCENTRICITY":0.00010082,"INCLINATION":53.1596,"RA_OF_ASC_NODE":80.4213,"ARG_OF_PERICENTER":87.4556,"MEAN_ANOMALY":272.6561,"EPHEMERIS_TYPE":0,"CLASSIFICATION_TYPE":"U","NORAD_CAT_ID":59012,"ELEMENT_SET_NO":999,"REV_AT_EPOCH":11525,"BSTAR":1.637871e-5,"MEAN_MOTION_DOT":1.26e-6,"MEAN_MOTION_DDOT":0},{"OBJECT_NAME":"TEVEL2-1","OBJECT_ID":"2025-052H","EPOCH":"2026-03-09T15:32:51.927072","MEAN_MOTION":15.30341923,"ECCENTRICITY":0.0004767,"INCLINATION":97.3991,"RA_OF_ASC_NODE":324.7682,"ARG_OF_PERICENTER":104.8919,"MEAN_ANOMALY":255.2849,"EPHEMERIS_TYPE":0,"CLASSIFICATION_TYPE":"U","NORAD_CAT_ID":63217,"ELEMENT_SET_NO":999,"REV_AT_EPOCH":5485,"BSTAR":0.000706,"MEAN_MOTION_DOT":0.00020683,"MEAN_MOTION_DDOT":0}]
